{"type": "FeatureCollection", "features": [ {"type": "Feature", "properties": {"norad_id": 33939, "name": "COSMOS 2251 DEB", "group": "cosmos-2251-debris", "lat": -11.042861691094814, "lon": 65.5306459526198, "alt_km": 567.9188866100676, "timestamp": "2025-12-18T13:51:50.079071+00:00", "meta": {"OBJECT_NAME": "COSMOS 2251 DEB", "OBJECT_ID": "1993-036EU", "EPOCH": "2025-12-18T05:54:47.315808", "MEAN_MOTION": 15.00283956, "ECCENTRICITY": 0.00041461, "INCLINATION": 74.0074, "RA_OF_ASC_NODE": 69.4137, "ARG_OF_PERICENTER": 34.3758, "MEAN_ANOMALY": 325.7697, "EPHEMERIS_TYPE": 0, "CLASSIFICATION_TYPE": "U", "NORAD_CAT_ID": 33939, "ELEMENT_SET_NO": 999, "REV_AT_EPOCH": 88835, "BSTAR": 0.0025550549, "MEAN_MOTION_DOT": 0.00032134, "MEAN_MOTION_DDOT": 0}, "tle": {"line1": "1 33939U 93036EU  25352.24638097  .00032134  00000+0  25551-2 0  9996", "line2": "2 33939  74.0074  69.4137 0004146  34.3758 325.7697 15.00283956888356"}}, "geometry": {"type": "Point", "coordinates": [65.5306459526198, -11.042861691094814]}}, {"type": "Feature", "properties": {"norad_id": 33940, "name": "COSMOS 2251 DEB", "group": "cosmos-2251-debris", "lat": -26.816869268379122, "lon": 124.06229626193503, "alt_km": 706.1616392337519, "timestamp": "2025-12-18T13:51:50.079081+00:00", "meta": {"OBJECT_NAME": "COSMOS 2251 DEB", "OBJECT_ID": "1993-036EV", "EPOCH": "2025-12-17T20:35:03.760224", "MEAN_MOTION": 14.5884267, "ECCENTRICITY": 0.00110762, "INCLINATION": 74.0387, "RA_OF_ASC_NODE": 133.7514, "ARG_OF_PERICENTER": 213.9063, "MEAN_ANOMALY": 298.4333, "EPHEMERIS_TYPE": 0, "CLASSIFICATION_TYPE": "U", "NORAD_CAT_ID": 33940, "ELEMENT_SET_NO": 999, "REV_AT_EPOCH": 88668, "BSTAR": 0.00084124572, "MEAN_MOTION_DOT": 3.913e-05, "MEAN_MOTION_DDOT": 0}, "tle": {"line1": "1 33940U 93036EV  25351.85768241  .00003913  00000+0  84125-3 0  9995", "line2": "2 33940  74.0387 133.7514 0011076 213.9063 298.4333 14.58842670886686"}}, "geometry": {"type": "Point", "coordinates": [124.06229626193503, -26.816869268379122]}}, {"type": "Feature", "properties": {"norad_id": 33942, "name": "COSMOS 2251 DEB", "group": "cosmos-2251-debris", "lat": 73.88849722071683, "lon": 1.787578412779437, "alt_km": 761.7138585586645, "timestamp": "2025-12-18T13:51:50.079091+00:00", "meta": {"OBJECT_NAME": "COSMOS 2251 DEB", "OBJECT_ID": "1993-036EX", "EPOCH": "2025-12-18T05:50:41.991648", "MEAN_MOTION": 14.37996663, "ECCENTRICITY": 0.00205537, "INCLINATION": 74.0365, "RA_OF_ASC_NODE": 264.6927, "ARG_OF_PERICENTER": 346.8871, "MEAN_ANOMALY": 176.0372, "EPHEMERIS_TYPE": 0, "CLASSIFICATION_TYPE": "U", "NORAD_CAT_ID": 33942, "ELEMENT_SET_NO": 999, "REV_AT_EPOCH": 88213, "BSTAR": 0.00018703693, "MEAN_MOTION_DOT": 5.41e-06, "MEAN_MOTION_DDOT": 0}, "tle": {"line1": "1 33942U 93036EX  25352.24354157  .00000541  00000+0  18704-3 0  9992", "line2": "2 33942  74.0365 264.6927 0020553 346.8871 176.0372 14.37996663882138"}}, "geometry": {"type": "Point", "coordinates": [1.787578412779437, 73.88849722071683]}}, {"type": "Feature", "properties": {"norad_id": 33944, "name": "COSMOS 2251 DEB", "group": "cosmos-2251-debris", "lat": -46.05992133895813, "lon": -79.0890744276411, "alt_km": 765.3462715700298, "timestamp": "2025-12-18T13:51:50.079102+00:00", "meta": {"OBJECT_NAME": "COSMOS 2251 DEB", "OBJECT_ID": "1993-036EZ", "EPOCH": "2025-12-18T06:15:52.123680", "MEAN_MOTION": 14.37355619, "ECCENTRICITY": 0.01124044, "INCLINATION": 74.0405, "RA_OF_ASC_NODE": 298.768, "ARG_OF_PERICENTER": 36.9461, "MEAN_ANOMALY": 78.1132, "EPHEMERIS_TYPE": 0, "CLASSIFICATION_TYPE": "U", "NORAD_CAT_ID": 33944, "ELEMENT_SET_NO": 999, "REV_AT_EPOCH": 88107, "BSTAR": 0.00029604667, "MEAN_MOTION_DOT": 9.23e-06, "MEAN_MOTION_DDOT": 0}, "tle": {"line1": "1 33944U 93036EZ  25352.26101995  .00000923  00000+0  29605-3 0  9992", "line2": "2 33944  74.0405 298.7680 0112404  36.9461  78.1132 14.37355619881076"}}, "geometry": {"type": "Point", "coordinates": [-79.0890744276411, -46.05992133895813]}}, {"type": "Feature", "properties": {"norad_id": 33945, "name": "COSMOS 2251 DEB", "group": "cosmos-2251-debris", "lat": 45.66881916755986, "lon": -47.38473005534771, "alt_km": 758.0383118030768, "timestamp": "2025-12-18T13:51:50.079112+00:00", "meta": {"OBJECT_NAME": "COSMOS 2251 DEB", "OBJECT_ID": "1993-036FA", "EPOCH": "2025-12-18T06:56:49.729344", "MEAN_MOTION": 14.34605346, "ECCENTRICITY": 0.00221483, "INCLINATION": 74.0301, "RA_OF_ASC_NODE": 296.0979, "ARG_OF_PERICENTER": 20.9341, "MEAN_ANOMALY": 339.2712, "EPHEMERIS_TYPE": 0, "CLASSIFICATION_TYPE": "U", "NORAD_CAT_ID": 33945, "ELEMENT_SET_NO": 999, "REV_AT_EPOCH": 88095, "BSTAR": 0.00010871087, "MEAN_MOTION_DOT": 2.82e-06, "MEAN_MOTION_DDOT": 0}, "tle": {"line1": "1 33945U 93036FA  25352.28946446  .00000282  00000+0  10871-3 0  9996", "line2": "2 33945  74.0301 296.0979 0022148  20.9341 339.2712 14.34605346880952"}}, "geometry": {"type": "Point", "coordinates": [-47.38473005534771, 45.66881916755986]}}, {"type": "Feature", "properties": {"norad_id": 33948, "name": "COSMOS 2251 DEB", "group": "cosmos-2251-debris", "lat": -72.04243868757834, "lon": -127.61034163191367, "alt_km": 779.9991803428738, "timestamp": "2025-12-18T13:51:50.079122+00:00", "meta": {"OBJECT_NAME": "COSMOS 2251 DEB", "OBJECT_ID": "1993-036FD", "EPOCH": "2025-12-18T05:52:50.853792", "MEAN_MOTION": 14.35635858, "ECCENTRICITY": 0.00229753, "INCLINATION": 74.0359, "RA_OF_ASC_NODE": 295.0329, "ARG_OF_PERICENTER": 9.4962, "MEAN_ANOMALY": 350.662, "EPHEMERIS_TYPE": 0, "CLASSIFICATION_TYPE": "U", "NORAD_CAT_ID": 33948, "ELEMENT_SET_NO": 999, "REV_AT_EPOCH": 88102, "BSTAR": 0.00016525961, "MEAN_MOTION_DOT": 4.52e-06, "MEAN_MOTION_DDOT": 0}, "tle": {"line1": "1 33948U 93036FD  25352.24503303  .00000452  00000+0  16526-3 0  9998", "line2": "2 33948  74.0359 295.0329 0022975   9.4962 350.6620 14.35635858881021"}}, "geometry": {"type": "Point", "coordinates": [-127.61034163191367, -72.04243868757834]}}, {"type": "Feature", "properties": {"norad_id": 33971, "name": "COSMOS 2251 DEB", "group": "cosmos-2251-debris", "lat": 66.5901946165728, "lon": -75.62774257458128, "alt_km": 752.581055967732, "timestamp": "2025-12-18T13:51:50.079133+00:00", "meta": {"OBJECT_NAME": "COSMOS 2251 DEB", "OBJECT_ID": "1993-036FE", "EPOCH": "2025-12-18T04:14:22.376832", "MEAN_MOTION": 14.39734615, "ECCENTRICITY": 0.00187547, "INCLINATION": 74.0245, "RA_OF_ASC_NODE": 243.6851, "ARG_OF_PERICENTER": 343.2089, "MEAN_ANOMALY": 171.6348, "EPHEMERIS_TYPE": 0, "CLASSIFICATION_TYPE": "U", "NORAD_CAT_ID": 33971, "ELEMENT_SET_NO": 999, "REV_AT_EPOCH": 88217, "BSTAR": 0.00020602936, "MEAN_MOTION_DOT": 6.2e-06, "MEAN_MOTION_DDOT": 0}, "tle": {"line1": "1 33971U 93036FE  25352.17664788  .00000620  00000+0  20603-3 0  9999", "line2": "2 33971  74.0245 243.6851 0018754 343.2089 171.6348 14.39734615882179"}}, "geometry": {"type": "Point", "coordinates": [-75.62774257458128, 66.5901946165728]}}, {"type": "Feature", "properties": {"norad_id": 33972, "name": "COSMOS 2251 DEB", "group": "cosmos-2251-debris", "lat": -59.61552321355833, "lon": 150.60023950127172, "alt_km": 720.4116922970279, "timestamp": "2025-12-18T13:51:50.079144+00:00", "meta": {"OBJECT_NAME": "COSMOS 2251 DEB", "OBJECT_ID": "1993-036FF", "EPOCH": "2025-12-17T23:49:01.144704", "MEAN_MOTION": 14.36260752, "ECCENTRICITY": 0.01235388, "INCLINATION": 73.9935, "RA_OF_ASC_NODE": 180.9905, "ARG_OF_PERICENTER": 347.5928, "MEAN_ANOMALY": 164.6661, "EPHEMERIS_TYPE": 0, "CLASSIFICATION_TYPE": "U", "NORAD_CAT_ID": 33972, "ELEMENT_SET_NO": 999, "REV_AT_EPOCH": 87149, "BSTAR": 0.0009239253, "MEAN_MOTION_DOT": 2.917e-05, "MEAN_MOTION_DDOT": 0}, "tle": {"line1": "1 33972U 93036FF  25351.99237436  .00002917  00000+0  92393-3 0  9991", "line2": "2 33972  73.9935 180.9905 0123538 347.5928 164.6661 14.36260752871499"}}, "geometry": {"type": "Point", "coordinates": [150.60023950127172, -59.61552321355833]}}, {"type": "Feature", "properties": {"norad_id": 33973, "name": "COSMOS 2251 DEB", "group": "cosmos-2251-debris", "lat": -56.27710079119959, "lon": -62.5633505091727, "alt_km": 718.0292394673288, "timestamp": "2025-12-18T13:51:50.079154+00:00", "meta": {"OBJECT_NAME": "COSMOS 2251 DEB", "OBJECT_ID": "1993-036FG", "EPOCH": "2025-12-18T06:14:22.911360", "MEAN_MOTION": 14.4539683, "ECCENTRICITY": 0.00473742, "INCLINATION": 74.0087, "RA_OF_ASC_NODE": 92.5862, "ARG_OF_PERICENTER": 269.9975, "MEAN_ANOMALY": 117.7846, "EPHEMERIS_TYPE": 0, "CLASSIFICATION_TYPE": "U", "NORAD_CAT_ID": 33973, "ELEMENT_SET_NO": 999, "REV_AT_EPOCH": 88680, "BSTAR": 0.00011938108, "MEAN_MOTION_DOT": 3.97e-06, "MEAN_MOTION_DDOT": 0}, "tle": {"line1": "1 33973U 93036FG  25352.25998740  .00000397  00000+0  11938-3 0  9990", "line2": "2 33973  74.0087  92.5862 0047374 269.9975 117.7846 14.45396830886804"}}, "geometry": {"type": "Point", "coordinates": [-62.5633505091727, -56.27710079119959]}}, {"type": "Feature", "properties": {"norad_id": 33975, "name": "COSMOS 2251 DEB", "group": "cosmos-2251-debris", "lat": -36.81661783426889, "lon": 61.624105763942794, "alt_km": 955.096804957705, "timestamp": "2025-12-18T13:51:50.079164+00:00", "meta": {"OBJECT_NAME": "COSMOS 2251 DEB", "OBJECT_ID": "1993-036FJ", "EPOCH": "2025-12-18T07:11:43.758528", "MEAN_MOTION": 14.00536127, "ECCENTRICITY": 0.01911553, "INCLINATION": 73.8019, "RA_OF_ASC_NODE": 74.6794, "ARG_OF_PERICENTER": 206.7179, "MEAN_ANOMALY": 152.4009, "EPHEMERIS_TYPE": 0, "CLASSIFICATION_TYPE": "U", "NORAD_CAT_ID": 33975, "ELEMENT_SET_NO": 999, "REV_AT_EPOCH": 85907, "BSTAR": 0.00044352596, "MEAN_MOTION_DOT": 7.46e-06, "MEAN_MOTION_DDOT": 0}, "tle": {"line1": "1 33975U 93036FJ  25352.29981202  .00000746  00000+0  44353-3 0  9996", "line2": "2 33975  73.8019  74.6794 0191155 206.7179 152.4009 14.00536127859077"}}, "geometry": {"type": "Point", "coordinates": [61.624105763942794, -36.81661783426889]}}]}